MEAN_MOTION;ECCENTRICITY;INCLINATION;RA_OF_ASC_NODE;ARG_OF_PERICENTER;MEAN_ANOMALY;BSTAR;MEAN_MOTION_DOT;MEAN_MOTION_DDOT;TYPE
0.99050559;0.0004673;5.6474;61.9097;306.7856;252.1771;0;-1.33E-6;0;Intelsat
0.99050335;0.0004673;5.6484;61.907;306.9911;72.9099;0;-1.19E-6;0;Intelsat
0.99050109;0.0004672;5.6494;61.9043;307.2856;253.4126;0;-1.05E-6;0;Intelsat
0.99049726;0.0004674;5.6512;61.8991;307.7438;239.8056;0;-7.9E-7;0;Intelsat
0.99049536;0.0004675;5.6522;61.8962;307.9201;71.6816;0;-6.4E-7;0;Intelsat
0.99049386;0.0004676;5.653;61.8938;308.1529;234.1926;0;-5.3E-7;0;Intelsat
0.99049222;0.0004678;5.6541;61.8907;308.3217;82.7436;0;-3.8E-7;0;Intelsat
0.99049002;0.0004682;5.656;61.8855;308.6843;80.4529;0;-1.3E-7;0;Intelsat
0.99048938;0.0004686;5.6567;61.8835;308.8778;213.1215;0;-5.0E-8;0;Intelsat
0.99048821;0.0004693;5.6586;61.8784;309.2444;205.8456;0;1.5E-7;0;Intelsat
0.99048803;0.0004697;5.6598;61.8751;309.331;75.9439;0;2.7E-7;0;Intelsat
0.99048797;0.0004701;5.6605;61.8733;309.4666;203.6955;0;3.3E-7;0;Intelsat
0.99048855;0.0004712;5.6624;61.8684;309.8184;192.8834;0;4.6E-7;0;Intelsat
0.99048942;0.0004719;5.6637;61.8652;310.0291;71.3902;0;5.3E-7;0;Intelsat
0.99049205;0.0004742;5.6663;61.8586;310.5191;196.8415;0;6.0E-7;0;Intelsat
0.99049445;0.0004761;5.668;61.8544;310.9184;156.3786;0;6.1E-7;0;Intelsat
0.99049478;0.0004763;5.6682;61.8539;310.9427;194.5165;0;6.1E-7;0;Intelsat
0.99049684;0.0004776;5.6694;61.851;311.3113;49.7011;0;5.9E-7;0;Intelsat
0.99049817;0.0004784;5.6701;61.8492;311.4163;192.1081;0;5.7E-7;0;Intelsat
0.99050068;0.0004799;5.6714;61.8462;311.8117;61.8798;0;5.2E-7;0;Intelsat
0.99050159;0.0004805;5.6719;61.8452;311.8977;145.6718;0;5.0E-7;0;Intelsat
0.99050262;0.0004812;5.6723;61.8438;311.9886;236.5436;0;4.7E-7;0;Intelsat
0.99050491;0.0004823;5.6733;61.8415;312.3705;59.3725;0;4.1E-7;0;Intelsat
0.99050624;0.000483;5.6739;61.8401;312.5081;169.8322;0;3.7E-7;0;Intelsat
0.99051069;0.0004852;5.6759;61.8356;313.1957;159.4761;0;2.3E-7;0;Intelsat
0.99051169;0.0004861;5.6763;61.8344;313.2804;235.5473;0;1.9E-7;0;Intelsat
0.9905154;0.0004873;5.6778;61.831;313.8757;153.6209;0;6.0E-8;0;Intelsat
0.99051928;0.0004887;5.6794;61.8271;314.4884;78.1011;0;-1.0E-7;0;Intelsat
0.99052126;0.0004899;5.6802;61.8252;314.7248;230.261;0;-1.9E-7;0;Intelsat
0.99052486;0.0004906;5.6817;61.8219;315.3205;142.48;0;-3.5E-7;0;Intelsat
0.99052901;0.0004918;5.6836;61.8178;316.0404;111.5438;0;-5.6E-7;0;Intelsat
0.9905328;0.0004931;5.6853;61.8138;316.7139;69.0677;0;-7.7E-7;0;Intelsat
0.99053644;0.0004943;5.6872;61.8098;317.4297;40.8396;0;-9.8E-7;0;Intelsat
0.99053668;0.0004942;5.6873;61.8095;317.4749;66.3657;0;-1.0E-6;0;Intelsat
0.99053836;0.0004951;5.6883;61.8073;317.7839;245.849;0;-1.12E-6;0;Intelsat
0.99054004;0.000495;5.6893;61.8051;318.2513;64.2513;0;-1.24E-6;0;Intelsat
0.99054111;0.0004952;5.69;61.8036;318.4074;191.4301;0;-1.32E-6;0;Intelsat
0.99054535;0.0004953;5.6934;61.7955;319.7552;109.8906;0;-1.72E-6;0;Intelsat
0.9905468;0.0004948;5.6954;61.7907;320.3735;115.6311;0;-1.93E-6;0;Intelsat
0.99054756;0.0004941;5.697;61.7866;320.8762;53.4192;0;-2.09E-6;0;Intelsat
0.99054768;0.000494;5.6978;61.7845;321.0561;206.7159;0;-2.17E-6;0;Intelsat
0.99054779;0.000493;5.6989;61.7817;321.3559;51.024;0;-2.26E-6;0;Intelsat
0.99054727;0.0004919;5.7009;61.7765;321.8158;74.2168;0;-2.41E-6;0;Intelsat
0.99054679;0.0004918;5.7017;61.7744;321.9447;225.6313;0;-2.46E-6;0;Intelsat
0.99054614;0.0004908;5.7028;61.7717;322.1727;71.96;0;-2.52E-6;0;Intelsat
0.99054448;0.0004899;5.7047;61.7669;322.5371;69.6835;0;-2.58E-6;0;Intelsat
0.99054335;0.0004897;5.7056;61.7645;322.7165;248.5462;0;-2.61E-6;0;Intelsat
0.99054226;0.000489;5.7066;61.7621;322.8587;67.4483;0;-2.61E-6;0;Intelsat
0.99053966;0.0004883;5.7085;61.7574;323.1277;65.2567;0;-2.6E-6;0;Intelsat
0.99053823;0.0004883;5.7093;61.7552;323.2866;229.4202;0;-2.58E-6;0;Intelsat
0.99053321;0.0004876;5.7123;61.748;323.6881;60.8942;0;-2.46E-6;0;Intelsat
0.99052959;0.0004876;5.7142;61.7435;323.9493;58.6914;0;-2.35E-6;0;Intelsat
0.99052772;0.0004875;5.7151;61.7413;324.101;237.5953;0;-2.28E-6;0;Intelsat
0.99052543;0.0004879;5.7163;61.7386;324.2769;100.9696;0;-2.18E-6;0;Intelsat
0.99052209;0.0004884;5.718;61.7347;324.4756;54.3428;0;-2.03E-6;0;Intelsat
0.99052018;0.0004884;5.719;61.7325;324.6539;233.1808;0;-1.95E-6;0;Intelsat
0.99051789;0.0004896;5.7202;61.7298;324.8658;101.6303;0;-1.82E-6;0;Intelsat
0.99051651;0.0004895;5.7209;61.7282;324.9478;230.9748;0;-1.75E-6;0;Intelsat
0.99051471;0.0004908;5.7218;61.7261;325.1668;49.8158;0;-1.64E-6;0;Intelsat
0.99051281;0.0004909;5.7228;61.7241;325.2723;228.7355;0;-1.54E-6;0;Intelsat
0.99051111;0.0004923;5.7238;61.7219;325.5418;47.5051;0;-1.42E-6;0;Intelsat
0.99050952;0.0004927;5.7246;61.7199;325.7276;214.4972;0;-1.32E-6;0;Intelsat
0.99050762;0.0004939;5.7258;61.7174;326.0174;70.6687;0;-1.18E-6;0;Intelsat
0.990506;0.0004947;5.7268;61.7155;326.2081;249.521;0;-1.06E-6;0;Intelsat
0.99050458;0.0004958;5.7278;61.7134;326.5353;68.218;0;-9.4E-7;0;Intelsat
0.990502;0.0004973;5.7297;61.7092;327.0477;65.7974;0;-6.9E-7;0;Intelsat
0.99050078;0.0004985;5.7307;61.7073;327.2982;244.575;0;-5.8E-7;0;Intelsat
0.99049983;0.0004993;5.7317;61.7053;327.5931;63.3206;0;-4.6E-7;0;Intelsat
0.99049812;0.0005007;5.7336;61.7012;328.2043;60.7829;0;-2.2E-7;0;Intelsat
0.99049735;0.0005013;5.7346;61.6991;328.476;239.5291;0;-1.1E-7;0;Intelsat
0.99049688;0.0005018;5.7356;61.6971;328.7897;58.2028;0;0;0;Intelsat
0.99049616;0.0005028;5.7375;61.6931;329.387;55.6765;0;2.0E-7;0;Intelsat
0.9904959;0.0005035;5.7385;61.6911;329.6565;234.4291;0;2.9E-7;0;Intelsat
0.9904959;0.0005035;5.7385;61.6911;329.6565;234.4291;0;2.9E-7;0;Intelsat
0.99049598;0.0005037;5.7394;61.6891;329.9907;53.1519;0;3.7E-7;0;Intelsat
0.99049602;0.000504;5.7404;61.6871;330.2832;231.8813;0;4.5E-7;0;Intelsat
0.99049672;0.0005041;5.7423;61.6831;330.8788;229.3334;0;5.7E-7;0;Intelsat
0.99049796;0.0005039;5.7442;61.679;331.4943;226.8043;0;6.6E-7;0;Intelsat
0.9904998;0.0005033;5.7461;61.6748;332.1136;223.6252;0;7.1E-7;0;Intelsat
0.99050215;0.0005026;5.748;61.6706;332.6809;221.7349;0;7.2E-7;0;Intelsat
0.99050497;0.0005013;5.7498;61.6662;333.2045;225.4562;0;6.8E-7;0;Intelsat
0.99050839;0.0004998;5.7518;61.6615;333.6344;242.5095;0;5.9E-7;0;Intelsat
0.990512;0.000498;5.7537;61.657;333.9813;240.2291;0;4.7E-7;0;Intelsat
0.99051243;0.0004976;5.7539;61.6566;334.0349;279.5509;0;4.5E-7;0;Intelsat
0.9905163;0.0004963;5.7557;61.6521;334.4003;274.0314;0;2.9E-7;0;Intelsat
0.9905201;0.0004947;5.7574;61.648;334.6569;238.1426;0;1.2E-7;0;Intelsat
0.99052045;0.0004945;5.7575;61.6476;334.6892;268.0902;0;1.1E-7;0;Intelsat
0.99052439;0.0004927;5.7592;61.6436;334.9111;233.691;0;-9.0E-8;0;Intelsat
0.9905292;0.000491;5.7612;61.6387;335.1741;258.58;0;-3.4E-7;0;Intelsat
0.99053345;0.0004895;5.763;61.6346;335.3775;249.3366;0;-5.8E-7;0;Intelsat
0.99053771;0.0004886;5.7649;61.6303;335.4427;248.2495;0;-8.5E-7;0;Intelsat
0.99053959;0.000488;5.7657;61.6285;335.4228;46.3138;0;-9.7E-7;0;Intelsat
0.99054166;0.0004877;5.7667;61.6263;335.5015;235.7857;0;-1.11E-6;0;Intelsat
0.99054523;0.0004871;5.7685;61.6222;335.589;231.3887;0;-1.39E-6;0;Intelsat
0.99054686;0.000487;5.7694;61.6203;335.6508;42.25;0;-1.52E-6;0;Intelsat
0.9905484;0.000487;5.7704;61.6182;335.663;228.8412;0;-1.66E-6;0;Intelsat
0.99055098;0.0004871;5.7722;61.6143;335.7892;219.2305;0;-1.92E-6;0;Intelsat
0.990553;0.0004875;5.7741;61.6103;335.9666;220.3078;0;-2.17E-6;0;Intelsat
0.99055431;0.0004883;5.7759;61.6062;336.1938;216.7826;0;-2.39E-6;0;Intelsat
0.99055494;0.0004894;5.7779;61.6019;336.4524;238.4251;0;-2.58E-6;0;Intelsat
0.99055478;0.0004906;5.7798;61.5979;336.7646;236.1944;0;-2.73E-6;0;Intelsat
0.99055381;0.0004918;5.7817;61.5939;337.1053;233.9386;0;-2.83E-6;0;Intelsat
0.99055211;0.0004926;5.7835;61.5899;337.5056;223.2007;0;-2.89E-6;0;Intelsat
0.99054959;0.0004936;5.7855;61.5858;337.9424;229.2723;0;-2.89E-6;0;Intelsat
0.99054644;0.0004944;5.7873;61.5819;338.404;227.1839;0;-2.86E-6;0;Intelsat
0.99054268;0.0004948;5.7892;61.578;338.8695;224.5389;0;-2.77E-6;0;Intelsat
0.9905384;0.0004952;5.7911;61.574;339.288;225.2867;0;-2.64E-6;0;Intelsat
0.99053688;0.0004958;5.7917;61.5727;339.4089;349.903;0;-2.59E-6;0;Intelsat
0.99052858;0.0004947;5.7948;61.5658;340.1708;228.471;0;-2.27E-6;0;Intelsat
0.99052429;0.0004941;5.7963;61.5624;340.5568;163.9922;0;-2.09E-6;0;Intelsat
0.99051827;0.0004924;5.7984;61.5573;341.0655;212.6995;0;-1.81E-6;0;Intelsat
0.99051276;0.0004905;5.8003;61.5524;341.4714;230.8857;0;-1.53E-6;0;Intelsat
0.99050778;0.0004883;5.8022;61.5478;341.8317;233.6438;0;-1.26E-6;0;Intelsat
0.99050318;0.0004861;5.804;61.5432;342.0871;231.4571;0;-9.9E-7;0;Intelsat
0.99050148;0.000485;5.8047;61.5414;342.1611;19.5957;0;-8.7E-7;0;Intelsat
0.99049912;0.0004841;5.8058;61.5386;342.2821;229.3341;0;-7.2E-7;0;Intelsat
0.99049574;0.0004822;5.8076;61.5341;342.3656;227.3188;0;-4.5E-7;0;Intelsat
0.9904945;0.0004804;5.8083;61.5323;342.4346;18.1978;0;-3.4E-7;0;Intelsat
0.99049305;0.0004795;5.8093;61.5299;342.5829;211.449;0;-2.1E-7;0;Intelsat
0.99049147;0.0004779;5.8107;61.5264;342.6277;122.3023;0;-3.0E-8;0;Intelsat
0.99049037;0.0004758;5.812;61.5233;342.6885;19.5397;0;1.2E-7;0;Intelsat
0.99048976;0.0004748;5.813;61.5208;342.8111;221.0446;0;2.3E-7;0;Intelsat
0.99048941;0.0004726;5.8148;61.5165;342.8647;219.0601;0;4.1E-7;0;Intelsat
0.99048963;0.0004725;5.8156;61.5147;342.6732;13.9667;0;4.7E-7;0;Intelsat
0.99048999;0.0004721;5.8166;61.5123;342.6884;217.3079;0;5.4E-7;0;Intelsat
0.99049129;0.0004704;5.8185;61.5081;342.6955;215.35;0;6.3E-7;0;Intelsat
0.99049301;0.0004695;5.82;61.5045;342.6813;162.3136;0;6.7E-7;0;Intelsat
0.99049336;0.0004693;5.8203;61.5039;342.706;213.4006;0;6.7E-7;0;Intelsat
0.99049609;0.0004687;5.8221;61.4997;342.7146;211.4826;0;6.7E-7;0;Intelsat
0.99049912;0.0004684;5.8237;61.4961;342.7781;183.92;0;6.3E-7;0;Intelsat
0.9904994;0.0004685;5.8239;61.4957;342.7561;209.4813;0;6.3E-7;0;Intelsat
0.99050331;0.000468;5.8257;61.4914;342.9983;213.7535;0;5.4E-7;0;Intelsat
0.99050783;0.0004685;5.8277;61.4869;343.1729;230.7772;0;4.1E-7;0;Intelsat
